[{"OBJECT_NAME":"STARLINK-33915","OBJECT_ID":"2025-087M","EPOCH":"2026-03-09T17:16:17.138784","MEAN_MOTION":15.30182486,"ECCENTRICITY":8.876e-5,"INCLINATION":53.1572,"RA_OF_ASC_NODE":219.4555,"ARG_OF_PERICENTER":83.3484,"MEAN_ANOMALY":276.7618,"EPHEMERIS_TYPE":0,"CLASSIFICATION_TYPE":"U","NORAD_CAT_ID":63708,"ELEMENT_SET_NO":999,"REV_AT_EPOCH":4920,"BSTAR":0.00090408464,"MEAN_MOTION_DOT":0.00026498,"MEAN_MOTION_DDOT":0},{"OBJECT_NAME":"AUREOLE 3","OBJECT_ID":"1981-094A","EPOCH":"2026-03-09T22:56:08.699136","MEAN_MOTION":14.57338362,"ECCENTRICITY":0.04661674,"INCLINATION":82.4728,"RA_OF_ASC_NODE":18.4217,"ARG_OF_PERICENTER":152.6496,"MEAN_ANOMALY":210.011,"EPHEMERIS_TYPE":0,"CLASSIFICATION_TYPE":"U","NORAD_CAT_ID":12848,"ELEMENT_SET_NO":999,"REV_AT_EPOCH":24579,"BSTAR":0.00036802008,"MEAN_MOTION_DOT":8.02e-5,"MEAN_MOTION_DDOT":0}]
